STARLINK-30069          
1 56834U 23079M   26067.48212902 -.00002416  00000+0 -80472-4 0  9995
2 56834  42.9986 110.4464 0000469 272.6695  87.4103 15.26726881152740
STARLINK-31433          
1 59243U 24049N   26067.62118094 -.00000658  00000+0 -14393-4 0  9998
2 59243  43.0018 149.4846 0001332 233.1987 126.8743 15.27571687112249
